ONEWEB-0281             
1 48999U 21060AJ  26064.55849040  .00000048  00000+0  92496-4 0  9996
2 48999  87.8996 249.3849 0001497  94.9326 265.1975 13.16593008225999
ONEWEB-0282             
1 49000U 21060AK  26064.58857122  .00000082  00000+0  18178-3 0  9995
2 49000  87.9001 249.3896 0001719  98.5568 261.5758 13.16593721225977
ONEWEB-0283             
1 49001U 21060AL  26064.57748644  .00000120  00000+0  28089-3 0  9998
2 49001  87.9001 249.3919 0001569 100.8899 259.2408 13.16593482225982
ONEWEB-0284             
1 49002U 21060AM  26064.57116221  .00000100  00000+0  22778-3 0  9996
2 49002  87.9002 249.3845 0001942  93.0942 267.0411 13.16593407225965
ONEWEB-0285             
1 49075U 21075A   26064.30148585  .00000489  00000+0  13251-2 0  9996
2 49075  87.9000  11.2783 0001853  81.8793 278.2545 13.12441705221585
ONEWEB-0286             
1 49076U 21075B   26064.28356850  .00000217  00000+0  56675-3 0  9997
2 49076  87.8986  11.3089 0001767  73.8825 286.2498 13.12444109220934
ONEWEB-0287             
1 49077U 21075C   26064.58971693  .00000100  00000+0  22549-3 0  9993
2 49077  87.9145  26.4383 0001892  64.9810 295.1518 13.17651367219987
ONEWEB-0288             
1 49078U 21075D   26064.41245410 -.00000353  00000+0 -10173-2 0  9998
2 49078  87.8996  11.2511 0001929  78.1823 281.9522 13.12442099221579
ONEWEB-0289             
1 49079U 21075E   26064.32463655  .00000010  00000+0 -78996-5 0  9991
2 49079  87.9147  26.5033 0002275  85.4408 274.6984 13.17650555220520
ONEWEB-0290             
1 49080U 21075F   26064.60154784  .00000056  00000+0  11042-3 0  9990
2 49080  87.9157  26.4157 0002312  89.8415 270.2982 13.17647941219979
ONEWEB-0291             
1 49081U 21075G   26064.58635131  .00000112  00000+0  25653-3 0  9994
2 49081  87.9154  26.4276 0002137  72.9881 287.1484 13.17650453219969
ONEWEB-0293             
1 49082U 21075H   26064.61166888 -.00000029  00000+0 -10679-3 0  9998
2 49082  87.9146  26.4341 0002030  81.7961 278.3401 13.17649148219996
ONEWEB-0294             
1 49083U 21075J   26064.26675549 -.00000312  00000+0 -90366-3 0  9995
2 49083  87.8997  11.2819 0002161  83.4153 276.7222 13.12441976220943
ONEWEB-0295             
1 49084U 21075K   26064.30708474 -.00000004  00000+0 -42460-4 0  9996
2 49084  87.9140  26.4999 0002055  72.5410 287.5946 13.17649504219919
ONEWEB-0296             
1 49085U 21075L   26064.55137608 -.00000037  00000+0 -13826-3 0  9998
2 49085  87.9002  11.2291 0002051  71.5934 288.5417 13.12441392220983
ONEWEB-0297             
1 49086U 21075M   26064.27692555  .00000043  00000+0  84949-4 0  9995
2 49086  87.8988  11.3089 0001845  76.5305 283.6029 13.12443032221551
ONEWEB-0298             
1 49087U 21075N   26064.15955482 -.00000019  00000+0 -82315-4 0  9994
2 49087  87.9141  26.5259 0001718  80.4423 279.6903 13.17650115219926
