[{"OBJECT_NAME":"ONEWEB-0281","OBJECT_ID":"2021-060AJ","EPOCH":"2026-03-05T13:24:13.570560","MEAN_MOTION":13.16593008,"ECCENTRICITY":0.00014974,"INCLINATION":87.8996,"RA_OF_ASC_NODE":249.3849,"ARG_OF_PERICENTER":94.9326,"MEAN_ANOMALY":265.1975,"EPHEMERIS_TYPE":0,"CLASSIFICATION_TYPE":"U","NORAD_CAT_ID":48999,"ELEMENT_SET_NO":999,"REV_AT_EPOCH":22599,"BSTAR":9.2496413e-5,"MEAN_MOTION_DOT":4.8e-7,"MEAN_MOTION_DDOT":0},{"OBJECT_NAME":"ONEWEB-0282","OBJECT_ID":"2021-060AK","EPOCH":"2026-03-05T14:07:32.553408","MEAN_MOTION":13.16593721,"ECCENTRICITY":0.00017195,"INCLINATION":87.9001,"RA_OF_ASC_NODE":249.3896,"ARG_OF_PERICENTER":98.5568,"MEAN_ANOMALY":261.5758,"EPHEMERIS_TYPE":0,"CLASSIFICATION_TYPE":"U","NORAD_CAT_ID":49000,"ELEMENT_SET_NO":999,"REV_AT_EPOCH":22597,"BSTAR":0.00018177777,"MEAN_MOTION_DOT":8.2e-7,"MEAN_MOTION_DDOT":0},{"OBJECT_NAME":"ONEWEB-0283","OBJECT_ID":"2021-060AL","EPOCH":"2026-03-05T13:51:34.828416","MEAN_MOTION":13.16593482,"ECCENTRICITY":0.00015695,"INCLINATION":87.9001,"RA_OF_ASC_NODE":249.3919,"ARG_OF_PERICENTER":100.8899,"MEAN_ANOMALY":259.2408,"EPHEMERIS_TYPE":0,"CLASSIFICATION_TYPE":"U","NORAD_CAT_ID":49001,"ELEMENT_SET_NO":999,"REV_AT_EPOCH":22598,"BSTAR":0.00028088956,"MEAN_MOTION_DOT":1.2e-6,"MEAN_MOTION_DDOT":0},{"OBJECT_NAME":"ONEWEB-0284","OBJECT_ID":"2021-060AM","EPOCH":"2026-03-05T13:42:28.414944","MEAN_MOTION":13.16593407,"ECCENTRICITY":0.0001942,"INCLINATION":87.9002,"RA_OF_ASC_NODE":249.3845,"ARG_OF_PERICENTER":93.0942,"MEAN_ANOMALY":267.0411,"EPHEMERIS_TYPE":0,"CLASSIFICATION_TYPE":"U","NORAD_CAT_ID":49002,"ELEMENT_SET_NO":999,"REV_AT_EPOCH":22596,"BSTAR":0.00022778308,"MEAN_MOTION_DOT":1.0e-6,"MEAN_MOTION_DDOT":0},{"OBJECT_NAME":"ONEWEB-0285","OBJECT_ID":"2021-075A","EPOCH":"2026-03-05T07:14:08.377440","MEAN_MOTION":13.12441705,"ECCENTRICITY":0.00018531,"INCLINATION":87.9,"RA_OF_ASC_NODE":11.2783,"ARG_OF_PERICENTER":81.8793,"MEAN_ANOMALY":278.2545,"EPHEMERIS_TYPE":0,"CLASSIFICATION_TYPE":"U","NORAD_CAT_ID":49075,"ELEMENT_SET_NO":999,"REV_AT_EPOCH":22158,"BSTAR":0.001325088,"MEAN_MOTION_DOT":4.89e-6,"MEAN_MOTION_DDOT":0},{"OBJECT_NAME":"ONEWEB-0286","OBJECT_ID":"2021-075B","EPOCH":"2026-03-05T06:48:20.318400","MEAN_MOTION":13.12444109,"ECCENTRICITY":0.00017677,"INCLINATION":87.8986,"RA_OF_ASC_NODE":11.3089,"ARG_OF_PERICENTER":73.8825,"MEAN_ANOMALY":286.2498,"EPHEMERIS_TYPE":0,"CLASSIFICATION_TYPE":"U","NORAD_CAT_ID":49076,"ELEMENT_SET_NO":999,"REV_AT_EPOCH":22093,"BSTAR":0.00056674939,"MEAN_MOTION_DOT":2.17e-6,"MEAN_MOTION_DDOT":0},{"OBJECT_NAME":"ONEWEB-0287","OBJECT_ID":"2021-075C","EPOCH":"2026-03-05T14:09:11.542752","MEAN_MOTION":13.17651367,"ECCENTRICITY":0.00018929,"INCLINATION":87.9145,"RA_OF_ASC_NODE":26.4383,"ARG_OF_PERICENTER":64.981,"MEAN_ANOMALY":295.1518,"EPHEMERIS_TYPE":0,"CLASSIFICATION_TYPE":"U","NORAD_CAT_ID":49077,"ELEMENT_SET_NO":999,"REV_AT_EPOCH":21998,"BSTAR":0.00022549346,"MEAN_MOTION_DOT":1.0e-6,"MEAN_MOTION_DDOT":0},{"OBJECT_NAME":"ONEWEB-0288","OBJECT_ID":"2021-075D","EPOCH":"2026-03-05T09:53:56.034240","MEAN_MOTION":13.12442099,"ECCENTRICITY":0.00019291,"INCLINATION":87.8996,"RA_OF_ASC_NODE":11.2511,"ARG_OF_PERICENTER":78.1823,"MEAN_ANOMALY":281.9522,"EPHEMERIS_TYPE":0,"CLASSIFICATION_TYPE":"U","NORAD_CAT_ID":49078,"ELEMENT_SET_NO":999,"REV_AT_EPOCH":22157,"BSTAR":-0.0010173071,"MEAN_MOTION_DOT":-3.53e-6,"MEAN_MOTION_DDOT":0},{"OBJECT_NAME":"ONEWEB-0289","OBJECT_ID":"2021-075E","EPOCH":"2026-03-05T07:47:28.597920","MEAN_MOTION":13.17650555,"ECCENTRICITY":0.00022753,"INCLINATION":87.9147,"RA_OF_ASC_NODE":26.5033,"ARG_OF_PERICENTER":85.4408,"MEAN_ANOMALY":274.6984,"EPHEMERIS_TYPE":0,"CLASSIFICATION_TYPE":"U","NORAD_CAT_ID":49079,"ELEMENT_SET_NO":999,"REV_AT_EPOCH":22052,"BSTAR":-7.899555e-6,"MEAN_MOTION_DOT":1.0e-7,"MEAN_MOTION_DDOT":0},{"OBJECT_NAME":"ONEWEB-0290","OBJECT_ID":"2021-075F","EPOCH":"2026-03-05T14:26:13.733376","MEAN_MOTION":13.17647941,"ECCENTRICITY":0.00023124,"INCLINATION":87.9157,"RA_OF_ASC_NODE":26.4157,"ARG_OF_PERICENTER":89.8415,"MEAN_ANOMALY":270.2982,"EPHEMERIS_TYPE":0,"CLASSIFICATION_TYPE":"U","NORAD_CAT_ID":49080,"ELEMENT_SET_NO":999,"REV_AT_EPOCH":21997,"BSTAR":0.00011041569,"MEAN_MOTION_DOT":5.6e-7,"MEAN_MOTION_DDOT":0},{"OBJECT_NAME":"ONEWEB-0291","OBJECT_ID":"2021-075G","EPOCH":"2026-03-05T14:04:20.753184","MEAN_MOTION":13.17650453,"ECCENTRICITY":0.00021373,"INCLINATION":87.9154,"RA_OF_ASC_NODE":26.4276,"ARG_OF_PERICENTER":72.9881,"MEAN_ANOMALY":287.1484,"EPHEMERIS_TYPE":0,"CLASSIFICATION_TYPE":"U","NORAD_CAT_ID":49081,"ELEMENT_SET_NO":999,"REV_AT_EPOCH":21996,"BSTAR":0.00025653326,"MEAN_MOTION_DOT":1.12e-6,"MEAN_MOTION_DDOT":0},{"OBJECT_NAME":"ONEWEB-0293","OBJECT_ID":"2021-075H","EPOCH":"2026-03-05T14:40:48.191232","MEAN_MOTION":13.17649148,"ECCENTRICITY":0.00020304,"INCLINATION":87.9146,"RA_OF_ASC_NODE":26.4341,"ARG_OF_PERICENTER":81.7961,"MEAN_ANOMALY":278.3401,"EPHEMERIS_TYPE":0,"CLASSIFICATION_TYPE":"U","NORAD_CAT_ID":49082,"ELEMENT_SET_NO":999,"REV_AT_EPOCH":21999,"BSTAR":-0.00010678749,"MEAN_MOTION_DOT":-2.9e-7,"MEAN_MOTION_DDOT":0},{"OBJECT_NAME":"ONEWEB-0294","OBJECT_ID":"2021-075J","EPOCH":"2026-03-05T06:24:07.674336","MEAN_MOTION":13.12441976,"ECCENTRICITY":0.00021614,"INCLINATION":87.8997,"RA_OF_ASC_NODE":11.2819,"ARG_OF_PERICENTER":83.4153,"MEAN_ANOMALY":276.7222,"EPHEMERIS_TYPE":0,"CLASSIFICATION_TYPE":"U","NORAD_CAT_ID":49083,"ELEMENT_SET_NO":999,"REV_AT_EPOCH":22094,"BSTAR":-0.00090366437,"MEAN_MOTION_DOT":-3.12e-6,"MEAN_MOTION_DDOT":0},{"OBJECT_NAME":"ONEWEB-0295","OBJECT_ID":"2021-075K","EPOCH":"2026-03-05T07:22:12.121536","MEAN_MOTION":13.17649504,"ECCENTRICITY":0.00020555,"INCLINATION":87.914,"RA_OF_ASC_NODE":26.4999,"ARG_OF_PERICENTER":72.541,"MEAN_ANOMALY":287.5946,"EPHEMERIS_TYPE":0,"CLASSIFICATION_TYPE":"U","NORAD_CAT_ID":49084,"ELEMENT_SET_NO":999,"REV_AT_EPOCH":21991,"BSTAR":-4.2460339e-5,"MEAN_MOTION_DOT":-4.0e-8,"MEAN_MOTION_DDOT":0},{"OBJECT_NAME":"ONEWEB-0296","OBJECT_ID":"2021-075L","EPOCH":"2026-03-05T13:13:58.893312","MEAN_MOTION":13.12441392,"ECCENTRICITY":0.00020513,"INCLINATION":87.9002,"RA_OF_ASC_NODE":11.2291,"ARG_OF_PERICENTER":71.5934,"MEAN_ANOMALY":288.5417,"EPHEMERIS_TYPE":0,"CLASSIFICATION_TYPE":"U","NORAD_CAT_ID":49085,"ELEMENT_SET_NO":999,"REV_AT_EPOCH":22098,"BSTAR":-0.00013826378,"MEAN_MOTION_DOT":-3.7e-7,"MEAN_MOTION_DDOT":0},{"OBJECT_NAME":"ONEWEB-0297","OBJECT_ID":"2021-075M","EPOCH":"2026-03-05T06:38:46.367520","MEAN_MOTION":13.12443032,"ECCENTRICITY":0.00018453,"INCLINATION":87.8988,"RA_OF_ASC_NODE":11.3089,"ARG_OF_PERICENTER":76.5305,"MEAN_ANOMALY":283.6029,"EPHEMERIS_TYPE":0,"CLASSIFICATION_TYPE":"U","NORAD_CAT_ID":49086,"ELEMENT_SET_NO":999,"REV_AT_EPOCH":22155,"BSTAR":8.4949314e-5,"MEAN_MOTION_DOT":4.3e-7,"MEAN_MOTION_DDOT":0},{"OBJECT_NAME":"ONEWEB-0298","OBJECT_ID":"2021-075N","EPOCH":"2026-03-05T03:49:45.536448","MEAN_MOTION":13.17650115,"ECCENTRICITY":0.00017181,"INCLINATION":87.9141,"RA_OF_ASC_NODE":26.5259,"ARG_OF_PERICENTER":80.4423,"MEAN_ANOMALY":279.6903,"EPHEMERIS_TYPE":0,"CLASSIFICATION_TYPE":"U","NORAD_CAT_ID":49087,"ELEMENT_SET_NO":999,"REV_AT_EPOCH":21992,"BSTAR":-8.2315037e-5,"MEAN_MOTION_DOT":-1.9e-7,"MEAN_MOTION_DDOT":0}]
